{"fetched_at":"2026-03-29T02:12:04Z","count":15717,"tles":[{"name":"STARLINK-11675 [DTC]","line1":"1 64235U 25119C   26087.38073037  .00169433  00000+0  12938-2 0  9992","line2":"2 64235  42.9999  96.5142 0001282 273.9597  86.1124 15.70903016 48181","category":"Starlink"}]}