{
  "norad_id": 64235,
  "name": "STARLINK-11675 [DTC]",
  "history": [
    {
      "epoch": "2026-03-28T09:08:15.103968Z",
      "apogee_km": 357.1783128086172,
      "perigee_km": 355.45159932708157,
      "latitude_deg": -2.912169062200051e-06,
      "longitude_deg": 133.64926299414446,
      "height_km": 356.0276740770308,
      "semi_major_axis_km": 6734.451956067849,
      "eccentricity": 0.0001282,
      "inclination_deg": 42.9999,
      "raan_deg": 96.5142,
      "arg_perigee_deg": 273.9597,
      "mean_anomaly_deg": 86.1124,
      "mean_motion_rev_day": 15.70903016
    }
  ]
}